[{"OBJECT_NAME":"DONGPO 10","OBJECT_ID":"2022-167H","EPOCH":"2026-03-09T22:44:56.137344","MEAN_MOTION":15.322785,"ECCENTRICITY":0.00061655,"INCLINATION":97.685,"RA_OF_ASC_NODE":235.0962,"ARG_OF_PERICENTER":106.9526,"MEAN_ANOMALY":253.2392,"EPHEMERIS_TYPE":0,"CLASSIFICATION_TYPE":"U","NORAD_CAT_ID":54689,"ELEMENT_SET_NO":999,"REV_AT_EPOCH":18015,"BSTAR":0.00049390523,"MEAN_MOTION_DOT":0.00015333,"MEAN_MOTION_DDOT":0},{"OBJECT_NAME":"STARLINK-34884","OBJECT_ID":"2025-247Y","EPOCH":"2026-03-09T14:48:10.643040","MEAN_MOTION":15.30195971,"ECCENTRICITY":9.19e-5,"INCLINATION":53.1585,"RA_OF_ASC_NODE":191.6952,"ARG_OF_PERICENTER":91.0199,"MEAN_ANOMALY":269.0907,"EPHEMERIS_TYPE":0,"CLASSIFICATION_TYPE":"U","NORAD_CAT_ID":66287,"ELEMENT_SET_NO":999,"REV_AT_EPOCH":2102,"BSTAR":0.0010523,"MEAN_MOTION_DOT":0.00030933,"MEAN_MOTION_DDOT":0}]
